SL-14 R/B               
1 21423U 91042B   26036.68267448  .00000549  00000+0  66501-4 0  9999
2 21423  82.4901 250.2036 0016805 351.4925   8.6002 14.81799310848330
ERS-1                   
1 21574U 91050A   26036.65251671  .00000529  00000+0  18401-3 0  9996
2 21574  98.7896  54.0815 0030986 298.2670  61.5390 14.39423060811120
ARIANE 40 R/B           
1 21610U 91050F   26036.64093968  .00000472  00000+0  15397-3 0  9997
2 21610  98.2079  90.0696 0003640 152.7941 207.3441 14.42869728814374
INTERCOSMOS 25          
1 21819U 91086A   26036.78848890  .00001117  00000+0  21669-3 0  9990
2 21819  82.6088 329.2856 1486633 185.6598 172.5877 12.11912749492822
SL-8 R/B                
1 21876U 92008B   26036.79989245  .00000079  00000+0  65815-4 0  9997
2 21876  82.9270 291.5014 0033683 222.3491 203.0130 13.75969513705035
SL-8 R/B                
1 21938U 92020B   26036.76953606  .00000148  00000+0  13738-3 0  9992
2 21938  82.9324 177.4542 0029482  29.3011  80.7579 13.75544591696746
USA 81                  
1 21949U 92023A   26036.80355039  .00000326  00000+0  11339-3 0  9991
2 21949  85.0120 149.8263 0002565 106.0879 254.0596 14.32356054 90222
COSMOS 2219             
1 22219U 92076A   26036.61793090 -.00000151  00000+0 -54219-4 0  9995
2 22219  71.0587  85.1175 0020470 251.3623 108.5277 14.14077153713844
SL-16 R/B               
1 22220U 92076B   26036.86072850  .00000251  00000+0  14896-3 0  9993
2 22220  70.9981 255.4220 0011708 152.6009 292.4349 14.16854797717329
COSMOS 2221             
1 22236U 92080A   26036.80217769  .00003203  00000+0  28250-3 0  9998
2 22236  82.5061 309.6189 0013089 304.6483  55.3504 14.96072147776029
SL-16 R/B               
1 22285U 92093B   26036.58453788 -.00000180  00000+0 -67738-4 0  9992
2 22285  71.0203  71.6659 0005074 327.1779  32.9028 14.15441589708618
COSMOS 2228             
1 22286U 92094A   26036.77253142  .00003338  00000+0  28659-3 0  9991
2 22286  82.5157 267.8737 0019295  52.0774 308.2189 14.97044251771284
